{
  "links" : {
    "next" : "https://api.nasa.gov/neo/rest/v1/feed?start_date=2007-11-23&end_date=2007-11-23&detailed=true&api_key=t0TVs3DtDT2H8Oy2Zy8m2eVrNsAVKAexjcZXUckd",
    "prev" : "https://api.nasa.gov/neo/rest/v1/feed?start_date=2007-11-21&end_date=2007-11-21&detailed=true&api_key=t0TVs3DtDT2H8Oy2Zy8m2eVrNsAVKAexjcZXUckd",
    "self" : "https://api.nasa.gov/neo/rest/v1/feed?start_date=2007-11-22&end_date=2007-11-22&detailed=true&api_key=t0TVs3DtDT2H8Oy2Zy8m2eVrNsAVKAexjcZXUckd"
  },
  "element_count" : 7,
  "near_earth_objects" : {
    "2007-11-22" : [ {
      "links" : {
        "self" : "https://api.nasa.gov/neo/rest/v1/neo/3394778?api_key=t0TVs3DtDT2H8Oy2Zy8m2eVrNsAVKAexjcZXUckd"
      },
      "neo_reference_id" : "3394778",
      "name" : "(2007 WA)",
      "nasa_jpl_url" : "http://ssd.jpl.nasa.gov/sbdb.cgi?sstr=3394778",
      "absolute_magnitude_h" : 24.7,
      "estimated_diameter" : {
        "kilometers" : {
          "estimated_diameter_min" : 0.0305179233,
          "estimated_diameter_max" : 0.0682401509
        },
        "meters" : {
          "estimated_diameter_min" : 30.5179232594,
          "estimated_diameter_max" : 68.2401509401
        },
        "miles" : {
          "estimated_diameter_min" : 0.0189629525,
          "estimated_diameter_max" : 0.0424024508
        },
        "feet" : {
          "estimated_diameter_min" : 100.1244233463,
          "estimated_diameter_max" : 223.8850168104
        }
      },
      "is_potentially_hazardous_asteroid" : false,
      "close_approach_data" : [ {
        "close_approach_date" : "2007-11-22",
        "epoch_date_close_approach" : 1195718400000,
        "relative_velocity" : {
          "kilometers_per_second" : "5.3028031812",
          "kilometers_per_hour" : "19090.0914522996",
          "miles_per_hour" : "11861.8404360136"
        },
        "miss_distance" : {
          "astronomical" : "0.0239456978",
          "lunar" : "9.3148765564",
          "kilometers" : "3582225.5",
          "miles" : "2225891.75"
        },
        "orbiting_body" : "Earth"
      } ],
      "orbital_data" : {
        "orbit_id" : "12",
        "orbit_determination_date" : "2017-04-06 09:05:06",
        "orbit_uncertainty" : "6",
        "minimum_orbit_intersection" : ".00961431",
        "jupiter_tisserand_invariant" : "5.903",
        "epoch_osculation" : "2458000.5",
        "eccentricity" : ".1528232495660173",
        "semi_major_axis" : "1.03516698457766",
        "inclination" : "6.167736263399572",
        "ascending_node_longitude" : "229.4109752146226",
        "orbital_period" : "384.6927886631079",
        "perihelion_distance" : ".8769694021510466",
        "perihelion_argument" : "276.6799402902158",
        "aphelion_distance" : "1.193364567004273",
        "perihelion_time" : "2457963.481193781775",
        "mean_anomaly" : "34.64263077265994",
        "mean_motion" : ".9358116674114927",
        "equinox" : "J2000"
      }
    }, {
      "links" : {
        "self" : "https://api.nasa.gov/neo/rest/v1/neo/3753623?api_key=t0TVs3DtDT2H8Oy2Zy8m2eVrNsAVKAexjcZXUckd"
      },
      "neo_reference_id" : "3753623",
      "name" : "(2016 LB)",
      "nasa_jpl_url" : "http://ssd.jpl.nasa.gov/sbdb.cgi?sstr=3753623",
      "absolute_magnitude_h" : 22.8,
      "estimated_diameter" : {
        "kilometers" : {
          "estimated_diameter_min" : 0.0732073989,
          "estimated_diameter_max" : 0.1636967205
        },
        "meters" : {
          "estimated_diameter_min" : 73.2073989347,
          "estimated_diameter_max" : 163.696720474
        },
        "miles" : {
          "estimated_diameter_min" : 0.0454889547,
          "estimated_diameter_max" : 0.1017163949
        },
        "feet" : {
          "estimated_diameter_min" : 240.181762721,
          "estimated_diameter_max" : 537.0627483999
        }
      },
      "is_potentially_hazardous_asteroid" : false,
      "close_approach_data" : [ {
        "close_approach_date" : "2007-11-22",
        "epoch_date_close_approach" : 1195718400000,
        "relative_velocity" : {
          "kilometers_per_second" : "21.4007228002",
          "kilometers_per_hour" : "77042.6020805861",
          "miles_per_hour" : "47871.2768316842"
        },
        "miss_distance" : {
          "astronomical" : "0.2948207678",
          "lunar" : "114.6852722168",
          "kilometers" : "44104556",
          "miles" : "27405302"
        },
        "orbiting_body" : "Earth"
      } ],
      "orbital_data" : {
        "orbit_id" : "11",
        "orbit_determination_date" : "2017-08-10 06:19:57",
        "orbit_uncertainty" : "1",
        "minimum_orbit_intersection" : ".0111133",
        "jupiter_tisserand_invariant" : "5.882",
        "epoch_osculation" : "2458000.5",
        "eccentricity" : ".1460948147138676",
        "semi_major_axis" : "1.01171243426374",
        "inclination" : "32.18373124829298",
        "ascending_node_longitude" : "72.96120151443269",
        "orbital_period" : "371.6927228047263",
        "perihelion_distance" : ".8639064936362629",
        "perihelion_argument" : "76.43178177525812",
        "aphelion_distance" : "1.159518374891217",
        "perihelion_time" : "2457825.323042491599",
        "mean_anomaly" : "169.6662345906502",
        "mean_motion" : ".9685419646731444",
        "equinox" : "J2000"
      }
    }, {
      "links" : {
        "self" : "https://api.nasa.gov/neo/rest/v1/neo/3634889?api_key=t0TVs3DtDT2H8Oy2Zy8m2eVrNsAVKAexjcZXUckd"
      },
      "neo_reference_id" : "3634889",
      "name" : "(2013 GF84)",
      "nasa_jpl_url" : "http://ssd.jpl.nasa.gov/sbdb.cgi?sstr=3634889",
      "absolute_magnitude_h" : 25.0,
      "estimated_diameter" : {
        "kilometers" : {
          "estimated_diameter_min" : 0.02658,
          "estimated_diameter_max" : 0.0594346868
        },
        "meters" : {
          "estimated_diameter_min" : 26.58,
          "estimated_diameter_max" : 59.4346868419
        },
        "miles" : {
          "estimated_diameter_min" : 0.0165160412,
          "estimated_diameter_max" : 0.0369309908
        },
        "feet" : {
          "estimated_diameter_min" : 87.2047272,
          "estimated_diameter_max" : 194.9956979785
        }
      },
      "is_potentially_hazardous_asteroid" : false,
      "close_approach_data" : [ {
        "close_approach_date" : "2007-11-22",
        "epoch_date_close_approach" : 1195718400000,
        "relative_velocity" : {
          "kilometers_per_second" : "9.0201201813",
          "kilometers_per_hour" : "32472.4326525016",
          "miles_per_hour" : "20177.1068334391"
        },
        "miss_distance" : {
          "astronomical" : "0.2405012269",
          "lunar" : "93.554977417",
          "kilometers" : "35978472",
          "miles" : "22355986"
        },
        "orbiting_body" : "Earth"
      } ],
      "orbital_data" : {
        "orbit_id" : "9",
        "orbit_determination_date" : "2017-04-06 08:46:05",
        "orbit_uncertainty" : "7",
        "minimum_orbit_intersection" : ".07034",
        "jupiter_tisserand_invariant" : "5.388",
        "epoch_osculation" : "2458000.5",
        "eccentricity" : ".1257856990421148",
        "semi_major_axis" : "1.160145479477388",
        "inclination" : "15.56778673363916",
        "ascending_node_longitude" : "26.96466472752635",
        "orbital_period" : "456.4225626682223",
        "perihelion_distance" : "1.014215769350775",
        "perihelion_argument" : "118.7277403309156",
        "aphelion_distance" : "1.306075189604001",
        "perihelion_time" : "2458161.938932656304",
        "mean_anomaly" : "232.6662077866731",
        "mean_motion" : ".7887427779544003",
        "equinox" : "J2000"
      }
    } ]
  }
}